{
    "links": {
        "self": "http://www.neowsapp.com/rest/v1/neo/3789381?api_key=iIulBulltgU6a56xZRHN4H3l9WmuAYTsLGpBGhQ2"
    },
    "id": "3789381",
    "neo_reference_id": "3789381",
    "name": "(2017 VN13)",
    "designation": "2017 VN13",
    "nasa_jpl_url": "http://ssd.jpl.nasa.gov/sbdb.cgi?sstr=3789381",
    "absolute_magnitude_h": 27.9,
    "estimated_diameter": {
        "kilometers": {
            "estimated_diameter_min": 0.0069912523,
            "estimated_diameter_max": 0.0156329154
        },
        "meters": {
            "estimated_diameter_min": 6.9912523225,
            "estimated_diameter_max": 15.6329154409
        },
        "miles": {
            "estimated_diameter_min": 0.0043441614,
            "estimated_diameter_max": 0.0097138403
        },
        "feet": {
            "estimated_diameter_min": 22.9371802696,
            "estimated_diameter_max": 51.289094295
        }
    },
    "is_potentially_hazardous_asteroid": false,
    "close_approach_data": [
        {
            "close_approach_date": "2009-02-26",
            "close_approach_date_full": "2009-Feb-26 23:14",
            "epoch_date_close_approach": 1235690040000,
            "relative_velocity": {
                "kilometers_per_second": "19.4998707732",
                "kilometers_per_hour": "70199.5347834052",
                "miles_per_hour": "43619.2609324997"
            },
            "miss_distance": {
                "astronomical": "0.3791007807",
                "lunar": "147.4702036923",
                "kilometers": "56712669.308057109",
                "miles": "35239618.6251977442"
            },
            "orbiting_body": "Earth"
        },
        {
            "close_approach_date": "2017-11-15",
            "close_approach_date_full": "2017-Nov-15 20:29",
            "epoch_date_close_approach": 1510777740000,
            "relative_velocity": {
                "kilometers_per_second": "8.9169203735",
                "kilometers_per_hour": "32100.9133444979",
                "miles_per_hour": "19946.2591834187"
            },
            "miss_distance": {
                "astronomical": "0.0076277333",
                "lunar": "2.9671882537",
                "kilometers": "1141092.654608071",
                "miles": "709042.0968545398"
            },
            "orbiting_body": "Earth"
        },
        {
            "close_approach_date": "2017-11-16",
            "close_approach_date_full": "2017-Nov-16 05:14",
            "epoch_date_close_approach": 1510809240000,
            "relative_velocity": {
                "kilometers_per_second": "9.0502612013",
                "kilometers_per_hour": "32580.9403247659",
                "miles_per_hour": "20244.5292812414"
            },
            "miss_distance": {
                "astronomical": "0.0084182604",
                "lunar": "3.2747032956",
                "kilometers": "1259353.824945348",
                "miles": "782526.1805998824"
            },
            "orbiting_body": "Moon"
        },
        {
            "close_approach_date": "2029-05-08",
            "close_approach_date_full": "2029-May-08 00:40",
            "epoch_date_close_approach": 1872895200000,
            "relative_velocity": {
                "kilometers_per_second": "13.3057206137",
                "kilometers_per_hour": "47900.5942091666",
                "miles_per_hour": "29763.5664406902"
            },
            "miss_distance": {
                "astronomical": "0.0664219434",
                "lunar": "25.8381359826",
                "kilometers": "9936581.253900558",
                "miles": "6174305.2848333804"
            },
            "orbiting_body": "Mars"
        }
    ],
    "orbital_data": {
        "orbit_id": "3",
        "orbit_determination_date": "2017-11-17 06:20:58",
        "first_observation_date": "2017-11-14",
        "last_observation_date": "2017-11-16",
        "data_arc_in_days": 2,
        "observations_used": 30,
        "orbit_uncertainty": "7",
        "minimum_orbit_intersection": ".00601072",
        "jupiter_tisserand_invariant": "4.083",
        "epoch_osculation": "2459000.5",
        "eccentricity": ".4533538581173073",
        "semi_major_axis": "1.695158156780559",
        "inclination": "5.371894156313649",
        "ascending_node_longitude": "50.83124332317244",
        "orbital_period": "806.1461096123977",
        "perihelion_distance": ".9266516662850692",
        "perihelion_argument": "40.95329882889556",
        "aphelion_distance": "2.463664647276049",
        "perihelion_time": "2458909.840028652519",
        "mean_anomaly": "40.48594826164395",
        "mean_motion": ".4465691711556993",
        "equinox": "J2000",
        "orbit_class": {
            "orbit_class_type": "APO",
            "orbit_class_description": "Near-Earth asteroid orbits which cross the Earth’s orbit similar to that of 1862 Apollo",
            "orbit_class_range": "a (semi-major axis) > 1.0 AU; q (perihelion) < 1.017 AU"
        }
    },
    "is_sentry_object": false
}